[{"OBJECT_NAME":"ONEWEB-0259","OBJECT_ID":"2021-060L","EPOCH":"2026-03-09T22:07:39.256032","MEAN_MOTION":13.16593786,"ECCENTRICITY":0.00017722,"INCLINATION":87.9005,"RA_OF_ASC_NODE":248.5251,"ARG_OF_PERICENTER":98.8623,"MEAN_ANOMALY":261.2709,"EPHEMERIS_TYPE":0,"CLASSIFICATION_TYPE":"U","NORAD_CAT_ID":48977,"ELEMENT_SET_NO":999,"REV_AT_EPOCH":22656,"BSTAR":0.00014223059,"MEAN_MOTION_DOT":6.7e-7,"MEAN_MOTION_DDOT":0},{"OBJECT_NAME":"NOVA 3","OBJECT_ID":"1984-110A","EPOCH":"2026-03-09T22:56:57.313824","MEAN_MOTION":13.23056942,"ECCENTRICITY":0.00334622,"INCLINATION":90.1127,"RA_OF_ASC_NODE":81.5188,"ARG_OF_PERICENTER":89.1357,"MEAN_ANOMALY":332.5718,"EPHEMERIS_TYPE":0,"CLASSIFICATION_TYPE":"U","NORAD_CAT_ID":15362,"ELEMENT_SET_NO":999,"REV_AT_EPOCH":99852,"BSTAR":0.00012783435,"MEAN_MOTION_DOT":6.3e-7,"MEAN_MOTION_DDOT":0}]
